1 31674U 99025CCG 18205.09683384 +.00000852 +00000-0 +43369-3 0  9996
2 31674 098.8708 156.4707 0037068 174.0392 186.1231 14.18135982261433
1 31675U 99025CCH 18204.98391769 +.00000992 +00000-0 +54604-3 0  9996
2 31675 098.4430 286.1000 0135781 162.4132 198.1809 14.09113691572727
1 31676U 99025CCJ 18200.00235767  .00000000  00000-0  39560-4 0  9996
2 31676  98.6008 272.4043 0417850 117.0767 247.3632 13.31394684542226
1 31677U 99025CCK 07169.86885332 +.00000222 +00000-0 +14573-3 0  9994
2 31677 099.0638 160.9698 0027495 163.5132 196.6940 14.11920022006012
1 31678U 99025CCL 18205.20388325 +.00000513 +00000-0 +12421-3 0  9999
2 31678 098.9801 199.8504 0348298 022.9879 338.6468 14.26865990581911
1 31679U 99025CCM 18204.75571627 +.00001107 +00000-0 +33349-3 0  9990
2 31679 098.9758 028.8184 0073950 234.2786 125.1508 14.43198783199707
1 31680U 99025CCN 18205.24811115 +.00000346 +00000-0 +50985-4 0  9996
2 31680 099.8664 002.9031 0178950 330.9659 028.1681 14.74531911601595
1 31682U 99025CCQ 18205.37047769 +.00002639 +00000-0 +60337-3 0  9996
2 31682 098.7259 261.6032 0037719 147.3977 212.9559 14.56174549584294
1 31683U 99025CCR 18205.21766352 +.00000910 +00000-0 +28400-3 0  9991
2 31683 098.7593 217.1269 0074182 152.5845 207.9288 14.41763717268333
1 31684U 99025CCS 18199.38191720  .00000490  00000-0  30211-3 0  9999
2 31684  99.0324 262.6041 0059317  34.1640 326.3324 14.09379091572207
1 31685U 99025CCT 18205.54877139 -.00000029 +00000-0 +94859-5 0  9990
2 31685 099.0414 229.4951 0015644 261.4125 253.4749 14.08851952570903
1 31686U 99025CCU 18205.00456196 +.00000543 +00000-0 +73297-4 0  9990
2 31686 098.4675 273.5862 0393175 074.4680 044.5047 14.41521727587384
1 31687U 99025CCV 17278.30914198  .00000903  00000-0  43183-3 0  9994
2 31687  98.9352 308.3899 0006006 190.3166 169.7888 14.21681365540295
1 31688U 99025CCW 18205.23556812 +.00000196 +00000-0 +15722-3 0  9995
2 31688 099.2886 215.7251 0072390 030.4355 330.0982 14.01308106574762
1 31690U 99025CCY 18204.07509084 +.00001788 +00000-0 +53585-3 0  9995
2 31690 098.8217 307.4045 0029167 057.3393 303.0604 14.43848453586395
1 31691U 99025CCZ 18202.91050538 +.00000540 +00000-0 +33142-3 0  9994
2 31691 099.0331 251.8079 0073442 320.0064 039.5709 14.08708844259625
1 31692U 99025CDA 18205.09039694 +.00000147 +00000-0 +13660-3 0  9993
2 31692 099.1599 156.8508 0117747 315.6027 043.5740 13.94305346575838
1 31695U 99025CDD 18205.39693512 +.00000619 +00000-0 +13301-3 0  9990
2 31695 098.5559 259.3647 0267051 189.3819 170.2327 14.42548101268775
1 31696U 99025CDE 18201.40062293  .00000157  00000-0  15291-3 0  9992
2 31696  97.8030 253.5079 0153586 315.9833  42.9181 13.85475744571247
1 31709U 99025CDG 18205.40998044 +.00001275 +00000-0 +71220-3 0  9999
2 31709 098.0343 065.6451 0189196 128.9676 232.8521 14.03574363256315
1 31710U 99025CDH 18205.23208706 +.00003940 +00000-0 +22709-3 0  9990
2 31710 098.9947 002.7530 0097416 109.3192 251.8597 15.09194363602780
1 31711U 99025CDJ 18204.92233887 +.00003632 +00000-0 +31915-3 0  9991
2 31711 099.0379 249.5614 0059724 237.8057 246.5357 14.96024484594666
1 31714U 99025CDM 18205.23550762 +.00001373 +00000-0 +63466-3 0  9999
2 31714 099.0408 301.2469 0057538 254.0222 134.0364 14.21779111574212
1 31715U 99025CDN 18205.59981012 +.00000398 +00000-0 +12158-3 0  9993
2 31715 099.2454 145.9649 0243489 062.9837 299.5977 14.32288636229661
1 31716U 99025CDP 18198.96778159  .00000179  00000-0  15272-3 0  9999
2 31716  98.5406 258.4905 0148600  62.8726  60.9082 13.93007600564532
1 31717U 99025CDQ 18204.31458028 +.00000418 +00000-0 +28822-3 0  9998
2 31717 096.9177 243.3419 0206015 329.5491 029.3840 13.93051011569069
1 31718U 99025CDR 18065.03339915  .00008746  00000-0  64948-3 0  9997
2 31718  96.6491 354.1703 0050549  76.5762 284.1093 15.02179894572407
1 31719U 99025CDS 18204.46436724 +.00001122 +00000-0 +93730-3 0  9998
2 31719 097.5556 082.3900 0213124 092.4687 270.0886 13.79830373214115
1 31720U 99025CDT 18205.21799882 +.00000336 +00000-0 +86051-4 0  9996
2 31720 099.1091 197.3547 0135716 014.3713 346.1281 14.52542929589350
1 31721U 99025CDU 18201.01356660  .00000002  00000-0  37673-4 0  9990
2 31721  99.5117 131.6996 0328174 329.9531  85.9923 13.70148410556405
1 31722U 99025CDV 18205.59199167 +.00001596 +00000-0 +49063-3 0  9999
2 31722 101.9614 348.9764 0021787 198.8013 223.6778 14.43709090580178
1 31723U 99025CDW 18205.46595134 +.00001187 +00000-0 +84145-3 0  9996
2 31723 097.8338 295.1468 0140013 280.0955 078.4440 13.94712093564954
1 31724U 99025CDX 18205.50342593 +.00000985 +00000-0 +42002-3 0  9992
2 31724 097.9011 089.3111 0215432 328.8960 029.9607 14.15369123577245
1 31725U 99025CDY 18155.12964060 -.00000447  00000-0 -70558-3 0  9996
2 31725  99.1966 123.4026 0715440 338.6962  18.5678 12.72346180514690
1 31726U 99025CDZ 18205.31222490 +.00000088 +00000-0 +64193-4 0  9996
2 31726 099.0187 249.1522 0257324 007.7307 053.7624 14.03171209574671
1 31727U 99025CEA 18205.38574397 +.00000517 +00000-0 +28449-3 0  9990
2 31727 098.9442 264.4992 0048829 168.1972 250.7997 14.15431702333511
1 31729U 99025CEC 18205.44865749 +.00001094 +00000-0 +70036-3 0  9993
2 31729 099.2516 294.4550 0086349 218.6879 140.8081 14.03825064256576
1 31731U 99025CEE 18204.79759142 +.00000555 +00000-0 +28831-3 0  9999
2 31731 099.3243 057.7819 0012588 236.5053 123.4919 14.19130662574763
1 31732U 99025CEF 18204.97559049 +.00000071 +00000-0 +65610-4 0  9994
2 31732 098.8728 280.3664 0040771 332.7559 027.1473 14.09465347262919
1 31733U 99025CEG 18205.51994385 +.00001205 +00000-0 +15506-3 0  9990
2 31733 099.0771 314.7847 0121324 102.8800 258.5993 14.78436483593475
1 31734U 99025CEH 18204.28130107 +.00000112 +00000-0 +63400-4 0  9991
2 31734 098.6051 238.9145 0110198 344.7544 015.0323 14.24339270579899
1 31735U 99025CEJ 18205.44895936 +.00000306 +00000-0 +12917-3 0  9990
2 31735 098.6411 287.6128 0070082 348.6345 011.3252 14.31190937579894
1 31736U 99025CEK 18205.27404569 +.00000019 +00000-0 +33898-4 0  9993
2 31736 098.8533 233.5586 0012136 008.3980 351.7393 14.12754856259528
1 31737U 99025CEL 18205.42953969 +.00000304 +00000-0 +67395-4 0  9990
2 31737 098.2470 276.4473 0186452 148.2292 269.9945 14.53992332588916
1 31738U 99025CEM 18205.35965019 +.00000102 +00000-0 +10380-3 0  9999
2 31738 099.5897 237.7982 0334381 351.0738 008.4558 13.74911378560238
1 31739U 99025CEN 18205.21516908 +.00000009 +00000-0 +25230-4 0  9991
2 31739 099.0358 207.1092 0128493 224.0957 134.9916 14.18054487572320
1 31740U 99025CEP 18205.39380197 +.00000372 +00000-0 +17735-3 0  9994
2 31740 099.8263 357.7709 0032141 139.9490 248.9028 14.26092818578462
1 31741U 99025CEQ 18205.21101539 +.00000378 +00000-0 +16536-3 0  9991
2 31741 099.1434 353.2841 0204045 221.5530 136.9982 14.19511256576367
1 31742U 99025CER 18205.56708292 +.00000240 +00000-0 +10582-3 0  9992
2 31742 098.7807 315.5427 0086311 306.1853 053.1368 14.30336645580071
1 31743U 99025CES 18205.21017539 +.00000345 +00000-0 +19875-3 0  9992
2 31743 099.2027 350.0861 0041480 329.1478 153.5125 14.15686815573511
1 31744U 99025CET 18205.26761928 +.00000837 +00000-0 +37522-3 0  9991
2 31744 099.4457 232.4499 0408862 184.1255 175.6495 13.88858519570641
1 31745U 99025CEU 18204.03359005 +.00000543 +00000-0 +20789-3 0  9996
2 31745 096.7613 138.4891 0477527 013.3472 347.9822 13.84758660564592
1 31746U 99025CEV 18205.13194892 +.00000640 +00000-0 +25304-3 0  9996
2 31746 098.6917 269.9486 0044343 350.0823 040.0103 14.31873297582071
1 31750U 99025CEZ 18204.14681469 +.00000605 +00000-0 +16601-3 0  9993
2 31750 098.7618 341.5634 0110183 079.6300 281.7289 14.47360482586715
1 31751U 99025CFA 18205.52187516 +.00001407 +00000-0 +46910-3 0  9998
2 31751 098.8674 301.4015 0063136 164.2899 196.0266 14.38060914583128
1 31752U 99025CFB 18197.22325890 -.00000110  00000-0 -36287-4 0  9994
2 31752  98.9258 345.0988 0404733  62.4336 301.7323 13.79290639561834
1 31753U 99025CFC 18205.53652663 +.00000081 +00000-0 +56951-4 0  9995
2 31753 098.9576 230.7738 0164552 327.0006 187.6243 14.15701438578191
1 31754U 99025CFD 18204.29024914 +.00000353 +00000-0 +15592-3 0  9997
2 31754 099.1077 020.5000 0062015 151.3074 209.1541 14.28812262583528
1 31755U 99025CFE 18205.33010625 +.00000056 +00000-0 +51152-4 0  9991
2 31755 098.8836 237.8057 0196787 045.6194 011.5627 14.05078737257541
1 31756U 99025CFF 18204.50663744 +.00000753 +00000-0 +35294-3 0  9998
2 31756 099.3494 106.7979 0063175 327.8125 031.9201 14.22434586579524
1 31757U 99025CFG 18205.25579196 -.00000228 +00000-0 -92766-4 0  9996
2 31757 099.0680 233.3751 0227204 072.6672 289.9210 14.04177930579455
1 31758U 99025CFH 18205.46932571 +.00000614 +00000-0 +17295-3 0  9990
2 31758 098.1448 069.7149 0479229 320.1452 036.5417 13.98283748564853
1 31759U 99025CFJ 18204.95450260 +.00001893 +00000-0 +50180-3 0  9994
2 31759 098.5830 201.9263 0004444 105.6185 284.3462 14.49900730583917
1 31760U 99025CFK 18205.53158424 +.00000184 +00000-0 +10129-3 0  9999
2 31760 099.2516 108.2727 0058288 340.7552 019.1423 14.23262895579042
1 31761U 99025CFL 18204.23782078 +.00000546 +00000-0 +17131-3 0  9996
2 31761 098.6411 217.4734 0578816 066.9738 299.1373 13.76463732207859
1 31763U 99025CFN 18204.54245550 +.00000252 +00000-0 +18453-3 0  9993
2 31763 098.5214 317.0142 0576517 164.1055 262.0663 13.42829543547273
1 31764U 99025CFP 12296.47618688 +.00001733 +00000-0 +12488-2 0  9993
2 31764 098.1533 024.1924 0256818 055.6463 309.3154 13.83258966274811
1 31765U 99025CFQ 18205.43295925 +.00002254 +00000-0 +13024-2 0  9997
2 31765 098.9781 019.2660 0276038 153.3893 239.5057 13.92542372560468
1 31766U 99025CFR 18204.34097134 -.00000100 +00000-0 -34210-4 0  9991
2 31766 098.9536 232.6964 0073882 278.6184 080.6617 14.04050494577098
1 31767U 99025CFS 18205.55133271 -.00000162 +00000-0 -74007-4 0  9995
2 31767 099.1394 228.4232 0042055 019.2965 134.3706 14.03602699569635
1 31768U 99025CFT 18205.56304696 +.00000690 +00000-0 +24717-3 0  9994
2 31768 099.0920 060.7845 0056249 087.0275 303.4630 14.36509408580238
